IRIDIUM 63              
1 25286U 98021B   25067.52345038  .00000593  00000+0  19585-3 0  9990
2 25286  86.3978 124.3748 0002124  97.1389 263.0050 14.36410783409399
IRIDIUM 69              
1 25319U 98026A   25067.70516220  .00000780  00000+0  23756-3 0  9998
2 25319  86.4002 137.8840 0002925  45.0810 315.0626 14.40804421408596
IRIDIUM 71              
1 25320U 98026B   25067.72574235  .00000691  00000+0  20876-3 0  9993
2 25320  86.3989 132.5873 0004172  77.1673 282.9993 14.41014112409128
IRIDIUM 73              
1 25344U 98032C   25067.55828022  .00001003  00000+0  24618-3 0  9999
2 25344  86.4353  89.5677 0002194  74.7929 285.3519 14.51481722415968
IRIDIUM 82              
1 25467U 98051A   25068.18076898  .00031147  00000+0  10652-2 0  9996
2 25467  86.3745 158.6663 0094541 315.1546  44.2086 15.25848482408678
